[{"OBJECT_NAME":"STARLINK-34002","OBJECT_ID":"2025-093W","EPOCH":"2026-02-27T05:48:18.331776","MEAN_MOTION":15.275933,"ECCENTRICITY":0.00021092,"INCLINATION":43.0012,"RA_OF_ASC_NODE":136.9462,"ARG_OF_PERICENTER":291.7789,"MEAN_ANOMALY":68.2838,"EPHEMERIS_TYPE":0,"CLASSIFICATION_TYPE":"U","NORAD_CAT_ID":63856,"ELEMENT_SET_NO":999,"REV_AT_EPOCH":4615,"BSTAR":0.00098435957,"MEAN_MOTION_DOT":0.00026936,"MEAN_MOTION_DDOT":0},{"OBJECT_NAME":"STARLINK-33999","OBJECT_ID":"2025-093X","EPOCH":"2026-02-27T05:27:56.589984","MEAN_MOTION":15.27605727,"ECCENTRICITY":0.00013382,"INCLINATION":42.9993,"RA_OF_ASC_NODE":136.8175,"ARG_OF_PERICENTER":255.9864,"MEAN_ANOMALY":104.0839,"EPHEMERIS_TYPE":0,"CLASSIFICATION_TYPE":"U","NORAD_CAT_ID":63857,"ELEMENT_SET_NO":999,"REV_AT_EPOCH":4637,"BSTAR":0.0014132637,"MEAN_MOTION_DOT":0.00038864,"MEAN_MOTION_DDOT":0},{"OBJECT_NAME":"STARLINK-33976","OBJECT_ID":"2025-093Y","EPOCH":"2026-02-26T13:59:20.349024","MEAN_MOTION":15.27592611,"ECCENTRICITY":0.0003114,"INCLINATION":43.0035,"RA_OF_ASC_NODE":140.5825,"ARG_OF_PERICENTER":277.7734,"MEAN_ANOMALY":82.2764,"EPHEMERIS_TYPE":0,"CLASSIFICATION_TYPE":"U","NORAD_CAT_ID":63858,"ELEMENT_SET_NO":999,"REV_AT_EPOCH":4611,"BSTAR":0.00089259,"MEAN_MOTION_DOT":0.00024393,"MEAN_MOTION_DDOT":0},{"OBJECT_NAME":"STARLINK-33821","OBJECT_ID":"2025-093Z","EPOCH":"2026-02-27T06:01:14.826720","MEAN_MOTION":15.27607199,"ECCENTRICITY":0.00023243,"INCLINATION":43.0002,"RA_OF_ASC_NODE":136.9874,"ARG_OF_PERICENTER":285.2581,"MEAN_ANOMALY":74.8013,"EPHEMERIS_TYPE":0,"CLASSIFICATION_TYPE":"U","NORAD_CAT_ID":63859,"ELEMENT_SET_NO":999,"REV_AT_EPOCH":4635,"BSTAR":0.00090990741,"MEAN_MOTION_DOT":0.00024883,"MEAN_MOTION_DDOT":0},{"OBJECT_NAME":"STARLINK-33888","OBJECT_ID":"2025-093AA","EPOCH":"2026-02-27T05:50:08.850336","MEAN_MOTION":15.27609022,"ECCENTRICITY":0.00010968,"INCLINATION":42.997,"RA_OF_ASC_NODE":136.9468,"ARG_OF_PERICENTER":180.1237,"MEAN_ANOMALY":179.9615,"EPHEMERIS_TYPE":0,"CLASSIFICATION_TYPE":"U","NORAD_CAT_ID":63860,"ELEMENT_SET_NO":999,"REV_AT_EPOCH":4637,"BSTAR":0.00091394091,"MEAN_MOTION_DOT":0.00024995,"MEAN_MOTION_DDOT":0},{"OBJECT_NAME":"STARLINK-33896","OBJECT_ID":"2025-093AB","EPOCH":"2026-02-27T05:57:33.080256","MEAN_MOTION":15.27603479,"ECCENTRICITY":8.462e-5,"INCLINATION":42.9995,"RA_OF_ASC_NODE":136.993,"ARG_OF_PERICENTER":215.128,"MEAN_ANOMALY":144.9516,"EPHEMERIS_TYPE":0,"CLASSIFICATION_TYPE":"U","NORAD_CAT_ID":63861,"ELEMENT_SET_NO":999,"REV_AT_EPOCH":4615,"BSTAR":0.00089822012,"MEAN_MOTION_DOT":0.00024555,"MEAN_MOTION_DDOT":0},{"OBJECT_NAME":"STARLINK-33878","OBJECT_ID":"2025-093AC","EPOCH":"2026-02-27T05:59:24.065376","MEAN_MOTION":15.27580034,"ECCENTRICITY":0.00015069,"INCLINATION":43.0007,"RA_OF_ASC_NODE":136.9753,"ARG_OF_PERICENTER":268.8933,"MEAN_ANOMALY":91.1746,"EPHEMERIS_TYPE":0,"CLASSIFICATION_TYPE":"U","NORAD_CAT_ID":63862,"ELEMENT_SET_NO":999,"REV_AT_EPOCH":4636,"BSTAR":0.00087745462,"MEAN_MOTION_DOT":0.00023962,"MEAN_MOTION_DDOT":0},{"OBJECT_NAME":"STARLINK-33954","OBJECT_ID":"2025-093AD","EPOCH":"2026-02-27T06:10:30.596448","MEAN_MOTION":15.27588244,"ECCENTRICITY":0.00015853,"INCLINATION":42.9966,"RA_OF_ASC_NODE":137.0568,"ARG_OF_PERICENTER":273.0918,"MEAN_ANOMALY":86.9753,"EPHEMERIS_TYPE":0,"CLASSIFICATION_TYPE":"U","NORAD_CAT_ID":63863,"ELEMENT_SET_NO":999,"REV_AT_EPOCH":4615,"BSTAR":0.0008546757,"MEAN_MOTION_DOT":0.00023337,"MEAN_MOTION_DDOT":0},{"OBJECT_NAME":"STARLINK-33863","OBJECT_ID":"2025-094A","EPOCH":"2026-02-26T13:50:44.037312","MEAN_MOTION":14.98318227,"ECCENTRICITY":0.0002668,"INCLINATION":70.0142,"RA_OF_ASC_NODE":262.6785,"ARG_OF_PERICENTER":284.8459,"MEAN_ANOMALY":75.2404,"EPHEMERIS_TYPE":0,"CLASSIFICATION_TYPE":"U","NORAD_CAT_ID":63864,"ELEMENT_SET_NO":999,"REV_AT_EPOCH":4553,"BSTAR":-8.6124e-5,"MEAN_MOTION_DOT":-1.12e-5,"MEAN_MOTION_DDOT":0},{"OBJECT_NAME":"STARLINK-33897","OBJECT_ID":"2025-094B","EPOCH":"2026-02-26T00:19:33.775104","MEAN_MOTION":14.98324649,"ECCENTRICITY":0.0003001,"INCLINATION":69.9995,"RA_OF_ASC_NODE":263.9178,"ARG_OF_PERICENTER":271.3773,"MEAN_ANOMALY":88.7042,"EPHEMERIS_TYPE":0,"CLASSIFICATION_TYPE":"U","NORAD_CAT_ID":63865,"ELEMENT_SET_NO":999,"REV_AT_EPOCH":4567,"BSTAR":0.00032292,"MEAN_MOTION_DOT":3.762e-5,"MEAN_MOTION_DDOT":0},{"OBJECT_NAME":"STARLINK-34022","OBJECT_ID":"2025-094C","EPOCH":"2026-02-27T00:39:50.726016","MEAN_MOTION":14.98337614,"ECCENTRICITY":0.00028151,"INCLINATION":69.9992,"RA_OF_ASC_NODE":261.4367,"ARG_OF_PERICENTER":268.6321,"MEAN_ANOMALY":91.4516,"EPHEMERIS_TYPE":0,"CLASSIFICATION_TYPE":"U","NORAD_CAT_ID":63866,"ELEMENT_SET_NO":999,"REV_AT_EPOCH":4560,"BSTAR":0.00059097355,"MEAN_MOTION_DOT":6.967e-5,"MEAN_MOTION_DDOT":0},{"OBJECT_NAME":"STARLINK-33979","OBJECT_ID":"2025-094D","EPOCH":"2026-02-27T05:16:17.790240","MEAN_MOTION":14.97898639,"ECCENTRICITY":0.0003371,"INCLINATION":69.995,"RA_OF_ASC_NODE":260.901,"ARG_OF_PERICENTER":143.0854,"MEAN_ANOMALY":217.0537,"EPHEMERIS_TYPE":0,"CLASSIFICATION_TYPE":"U","NORAD_CAT_ID":63867,"ELEMENT_SET_NO":999,"REV_AT_EPOCH":4563,"BSTAR":-0.018061225,"MEAN_MOTION_DOT":-0.00207041,"MEAN_MOTION_DDOT":0},{"OBJECT_NAME":"STARLINK-34007","OBJECT_ID":"2025-094E","EPOCH":"2026-02-26T13:44:41.725824","MEAN_MOTION":14.98335357,"ECCENTRICITY":0.0002802,"INCLINATION":69.9995,"RA_OF_ASC_NODE":262.6571,"ARG_OF_PERICENTER":269.7943,"MEAN_ANOMALY":90.2895,"EPHEMERIS_TYPE":0,"CLASSIFICATION_TYPE":"U","NORAD_CAT_ID":63868,"ELEMENT_SET_NO":999,"REV_AT_EPOCH":4553,"BSTAR":0.00024865,"MEAN_MOTION_DOT":2.875e-5,"MEAN_MOTION_DDOT":0},{"OBJECT_NAME":"STARLINK-34006","OBJECT_ID":"2025-094F","EPOCH":"2026-02-27T06:22:18.098400","MEAN_MOTION":14.983327,"ECCENTRICITY":0.00027533,"INCLINATION":69.9989,"RA_OF_ASC_NODE":260.6608,"ARG_OF_PERICENTER":272.3595,"MEAN_ANOMALY":87.7249,"EPHEMERIS_TYPE":0,"CLASSIFICATION_TYPE":"U","NORAD_CAT_ID":63869,"ELEMENT_SET_NO":999,"REV_AT_EPOCH":4564,"BSTAR":0.00051231025,"MEAN_MOTION_DOT":6.025e-5,"MEAN_MOTION_DDOT":0},{"OBJECT_NAME":"STARLINK-33986","OBJECT_ID":"2025-094G","EPOCH":"2026-02-27T00:09:48.159360","MEAN_MOTION":14.98316549,"ECCENTRICITY":0.00042934,"INCLINATION":70.0004,"RA_OF_ASC_NODE":261.3619,"ARG_OF_PERICENTER":271.1953,"MEAN_ANOMALY":88.8714,"EPHEMERIS_TYPE":0,"CLASSIFICATION_TYPE":"U","NORAD_CAT_ID":63870,"ELEMENT_SET_NO":999,"REV_AT_EPOCH":4560,"BSTAR":0.00018900958,"MEAN_MOTION_DOT":2.162e-5,"MEAN_MOTION_DDOT":0},{"OBJECT_NAME":"STARLINK-34013","OBJECT_ID":"2025-094H","EPOCH":"2026-02-27T06:16:02.916768","MEAN_MOTION":14.98342355,"ECCENTRICITY":0.00031947,"INCLINATION":69.9985,"RA_OF_ASC_NODE":260.6465,"ARG_OF_PERICENTER":272.7594,"MEAN_ANOMALY":87.3199,"EPHEMERIS_TYPE":0,"CLASSIFICATION_TYPE":"U","NORAD_CAT_ID":63871,"ELEMENT_SET_NO":999,"REV_AT_EPOCH":4564,"BSTAR":0.00022359657,"MEAN_MOTION_DOT":2.577e-5,"MEAN_MOTION_DDOT":0}]
