STARLINK-34002          
1 63856U 25093W   26058.24187884  .00026936  00000+0  98436-3 0  9998
2 63856  43.0012 136.9462 0002109 291.7789  68.2838 15.27593300 46152
STARLINK-33999          
1 63857U 25093X   26058.22773831  .00038864  00000+0  14133-2 0  9994
2 63857  42.9993 136.8175 0001338 255.9864 104.0839 15.27605727 46379
STARLINK-33976          
1 63858U 25093Y   26057.58287441  .00024393  00000+0  89259-3 0  9994
2 63858  43.0035 140.5825 0003114 277.7734  82.2764 15.27592611 46118
STARLINK-33821          
1 63859U 25093Z   26058.25086605  .00024883  00000+0  90991-3 0  9998
2 63859  43.0002 136.9874 0002324 285.2581  74.8013 15.27607199 46350
STARLINK-33888          
1 63860U 25093AA  26058.24315799  .00024995  00000+0  91394-3 0  9990
2 63860  42.9970 136.9468 0001096 180.1237 179.9615 15.27609022 46373
STARLINK-33896          
1 63861U 25093AB  26058.24829954  .00024555  00000+0  89822-3 0  9999
2 63861  42.9995 136.9930 0000846 215.1280 144.9516 15.27603479 46152
STARLINK-33878          
1 63862U 25093AC  26058.24958409  .00023962  00000+0  87745-3 0  9991
2 63862  43.0007 136.9753 0001506 268.8933  91.1746 15.27580034 46368
STARLINK-33954          
1 63863U 25093AD  26058.25729857  .00023337  00000+0  85468-3 0  9992
2 63863  42.9966 137.0568 0001585 273.0918  86.9753 15.27588244 46153
STARLINK-33863          
1 63864U 25094A   26057.57689858 -.00001120  00000+0 -86124-4 0  9993
2 63864  70.0142 262.6785 0002668 284.8459  75.2404 14.98318227 45535
STARLINK-33897          
1 63865U 25094B   26057.01358536  .00003762  00000+0  32292-3 0  9997
2 63865  69.9995 263.9178 0003001 271.3773  88.7042 14.98324649 45678
STARLINK-34022          
1 63866U 25094C   26058.02767044  .00006967  00000+0  59097-3 0  9990
2 63866  69.9992 261.4367 0002815 268.6321  91.4516 14.98337614 45605
STARLINK-33979          
1 63867U 25094D   26058.21965035 -.00207041  00000+0 -18061-1 0  9994
2 63867  69.9950 260.9010 0003371 143.0854 217.0537 14.97898639 45634
STARLINK-34007          
1 63868U 25094E   26057.57270516  .00002875  00000+0  24865-3 0  9993
2 63868  69.9995 262.6571 0002802 269.7943  90.2895 14.98335357 45539
STARLINK-34006          
1 63869U 25094F   26058.26548725  .00006025  00000+0  51231-3 0  9999
2 63869  69.9989 260.6608 0002753 272.3595  87.7249 14.98332700 45645
STARLINK-33986          
1 63870U 25094G   26058.00680740  .00002162  00000+0  18901-3 0  9992
2 63870  70.0004 261.3619 0004293 271.1953  88.8714 14.98316549 45602
STARLINK-34013          
1 63871U 25094H   26058.26114487  .00002577  00000+0  22360-3 0  9995
2 63871  69.9985 260.6465 0003194 272.7594  87.3199 14.98342355 45645
